[{"OBJECT_NAME":"OBJECT D","OBJECT_ID":"2025-108D","EPOCH":"2026-03-09T23:55:58.918944","MEAN_MOTION":15.17741465,"ECCENTRICITY":0.00119931,"INCLINATION":97.4751,"RA_OF_ASC_NODE":145.8386,"ARG_OF_PERICENTER":357.4422,"MEAN_ANOMALY":2.6748,"EPHEMERIS_TYPE":0,"CLASSIFICATION_TYPE":"U","NORAD_CAT_ID":64090,"ELEMENT_SET_NO":999,"REV_AT_EPOCH":4431,"BSTAR":0.00035350679,"MEAN_MOTION_DOT":7.081e-5,"MEAN_MOTION_DDOT":0},{"OBJECT_NAME":"CZ-2C DEB","OBJECT_ID":"2012-056D","EPOCH":"2026-03-09T22:30:06.084288","MEAN_MOTION":15.2083784,"ECCENTRICITY":0.00097542,"INCLINATION":97.554,"RA_OF_ASC_NODE":138.2235,"ARG_OF_PERICENTER":53.3187,"MEAN_ANOMALY":306.8943,"EPHEMERIS_TYPE":0,"CLASSIFICATION_TYPE":"U","NORAD_CAT_ID":38863,"ELEMENT_SET_NO":999,"REV_AT_EPOCH":72819,"BSTAR":0.00094787805,"MEAN_MOTION_DOT":0.00020917,"MEAN_MOTION_DDOT":0}]
